{
    "CCSDS_OMM_VERS": "3.0",
    "COMMENT": "GENERATED VIA SPACE-TRACK.ORG API",
    "CREATION_DATE": "2025-11-22T18:56:57",
    "ORIGINATOR": "18 SPCS",
    "OBJECT_NAME": "GALILEO 21 (2C7)",
    "OBJECT_ID": "2017-079C",
    "CENTER_NAME": "EARTH",
    "REF_FRAME": "TEME",
    "TIME_SYSTEM": "UTC",
    "MEAN_ELEMENT_THEORY": "SGP4",
    "EPOCH": "2025-11-21T21:03:49.239072",
    "MEAN_MOTION": "1.70473914",
    "ECCENTRICITY": "0.00029967",
    "INCLINATION": "55.1360",
    "RA_OF_ASC_NODE": "227.2104",
    "ARG_OF_PERICENTER": "327.7291",
    "MEAN_ANOMALY": "32.3312",
    "EPHEMERIS_TYPE": "0",
    "CLASSIFICATION_TYPE": "U",
    "NORAD_CAT_ID": "43057",
    "ELEMENT_SET_NO": "999",
    "REV_AT_EPOCH": "4945",
    "BSTAR": "0.00000000000000",
    "MEAN_MOTION_DOT": "0.00000023",
    "MEAN_MOTION_DDOT": "0.0000000000000",
    "SEMIMAJOR_AXIS": "29600.330",
    "PERIOD": "844.704",
    "APOAPSIS": "23231.065",
    "PERIAPSIS": "23213.325",
    "OBJECT_TYPE": "PAYLOAD",
    "RCS_SIZE": "LARGE",
    "COUNTRY_CODE": "ESA",
    "LAUNCH_DATE": "2017-12-12",
    "SITE": "FRGUI",
    "DECAY_DATE": null,
    "FILE": "4894246",
    "GP_ID": "303253455",
    "TLE_LINE0": "0 GALILEO 21 (2C7)",
    "TLE_LINE1": "1 43057U 17079C   25325.87765323  .00000023  00000-0  00000-0 0  9996",
    "TLE_LINE2": "2 43057  55.1360 227.2104 0002997 327.7291  32.3312  1.70473914 49459"
}